{"fetched_at":"2026-03-29T16:36:15Z","count":15609,"tles":[{"name":"STARLINK-35041","line1":"1 66188U 25243M   26087.89908673  .00029939  00000+0  10184-2 0  9995","line2":"2 66188  53.1599 156.1123 0001462  87.3046 272.8122 15.30214147 23594","category":"Starlink"}]}