{
  "norad_id": 66188,
  "name": "STARLINK-35041",
  "history": [
    {
      "epoch": "2026-03-28T21:34:41.093472",
      "apogee_km": 476.1747832498213,
      "perigee_km": 474.1708754557185,
      "latitude_deg": -26.871000468908097,
      "longitude_deg": 165.11232607997954,
      "semi_major_axis_km": 6853.309829352769,
      "eccentricity": 0.0001462,
      "inclination_deg": 53.1599,
      "raan_deg": 156.1123,
      "arg_perigee_deg": 87.3046,
      "mean_anomaly_deg": 272.8122,
      "mean_motion_rev_day": 15.30214147
    }
  ]
}